{
    "links": {
        "self": "http://www.neowsapp.com/rest/v1/neo/54016249?api_key=iIulBulltgU6a56xZRHN4H3l9WmuAYTsLGpBGhQ2"
    },
    "id": "54016249",
    "neo_reference_id": "54016249",
    "name": "(2020 FD2)",
    "designation": "2020 FD2",
    "nasa_jpl_url": "http://ssd.jpl.nasa.gov/sbdb.cgi?sstr=54016249",
    "absolute_magnitude_h": 25.699,
    "estimated_diameter": {
        "kilometers": {
            "estimated_diameter_min": 0.0192643773,
            "estimated_diameter_max": 0.0430764573
        },
        "meters": {
            "estimated_diameter_min": 19.26437735,
            "estimated_diameter_max": 43.0764572987
        },
        "miles": {
            "estimated_diameter_min": 0.0119703254,
            "estimated_diameter_max": 0.0267664613
        },
        "feet": {
            "estimated_diameter_min": 63.2033397849,
            "estimated_diameter_max": 141.326964164
        }
    },
    "is_potentially_hazardous_asteroid": false,
    "close_approach_data": [
        {
            "close_approach_date": "2020-02-02",
            "close_approach_date_full": "2020-Feb-02 05:21",
            "epoch_date_close_approach": 1580620860000,
            "relative_velocity": {
                "kilometers_per_second": "25.5638877922",
                "kilometers_per_hour": "92029.9960519304",
                "miles_per_hour": "57183.8606023787"
            },
            "miss_distance": {
                "astronomical": "0.0681958844",
                "lunar": "26.5281990316",
                "kilometers": "10201959.049006228",
                "miles": "6339203.4002848264"
            },
            "orbiting_body": "Merc"
        },
        {
            "close_approach_date": "2020-03-14",
            "close_approach_date_full": "2020-Mar-14 20:18",
            "epoch_date_close_approach": 1584217080000,
            "relative_velocity": {
                "kilometers_per_second": "33.4184701844",
                "kilometers_per_hour": "120306.4926636625",
                "miles_per_hour": "74753.7759553741"
            },
            "miss_distance": {
                "astronomical": "0.0021903359",
                "lunar": "0.8520406651",
                "kilometers": "327669.585224533",
                "miles": "203604.4389952354"
            },
            "orbiting_body": "Earth"
        },
        {
            "close_approach_date": "2020-03-14",
            "close_approach_date_full": "2020-Mar-14 20:29",
            "epoch_date_close_approach": 1584217740000,
            "relative_velocity": {
                "kilometers_per_second": "34.456595985",
                "kilometers_per_hour": "124043.7455459377",
                "miles_per_hour": "77075.9595588078"
            },
            "miss_distance": {
                "astronomical": "0.002407931",
                "lunar": "0.936685159",
                "kilometers": "360221.34870697",
                "miles": "223831.166897386"
            },
            "orbiting_body": "Moon"
        }
    ],
    "orbital_data": {
        "orbit_id": "2",
        "orbit_determination_date": "2020-03-31 06:05:49",
        "first_observation_date": "2020-03-17",
        "last_observation_date": "2020-03-24",
        "data_arc_in_days": 7,
        "observations_used": 22,
        "orbit_uncertainty": "9",
        "minimum_orbit_intersection": ".00188332",
        "jupiter_tisserand_invariant": "2.338",
        "epoch_osculation": "2458932.5",
        "eccentricity": ".9173159813934962",
        "semi_major_axis": "3.001521193997771",
        "inclination": ".2732762630300666",
        "ascending_node_longitude": "197.8789180901786",
        "orbital_period": "1899.374260383234",
        "perihelion_distance": ".2481778342523271",
        "perihelion_argument": "211.9655450344834",
        "aphelion_distance": "5.754864553743214",
        "perihelion_time": "2458885.229163866718",
        "mean_anomaly": "8.959530179453903",
        "mean_motion": ".1895361053947121",
        "equinox": "J2000",
        "orbit_class": {
            "orbit_class_type": "APO",
            "orbit_class_description": "Near-Earth asteroid orbits which cross the Earth’s orbit similar to that of 1862 Apollo",
            "orbit_class_range": "a (semi-major axis) > 1.0 AU; q (perihelion) < 1.017 AU"
        }
    },
    "is_sentry_object": false
}